[
    {
        "Altitude(m)": 706476.468758929,
        "Argument of Periapsis(deg)": 0.0034170363559881197,
        "Eccentricity": 0.0,
        "Inclination(deg)": 45.0,
        "Latitude(deg)": 41.42840560519187,
        "Longitude(deg)": -153.83730539611156,
        "Mean Anomaly(deg)": 68.91446499424427,
        "RAAN(deg)": 244.99677441756253,
        "Satellite Name": "Constellation 1 1082",
        "Satellite Number": 1082,
        "Semi-Major Axis(m)": 7083131.272910544,
        "Time(s)": 57
    },
    {
        "Altitude(m)": 706480.97106674,
        "Argument of Periapsis(deg)": 0.003476984362233526,
        "Eccentricity": 0.0,
        "Inclination(deg)": 45.0,
        "Latitude(deg)": 41.449000749323375,
        "Longitude(deg)": -153.76536749079324,
        "Mean Anomaly(deg)": 68.97516613449412,
        "RAAN(deg)": 244.99671782839698,
        "Satellite Name": "Constellation 1 1082",
        "Satellite Number": 1082,
        "Semi-Major Axis(m)": 7083131.272910544,
        "Time(s)": 58
    },
    {
        "Altitude(m)": 706485.4636243538,
        "Argument of Periapsis(deg)": 0.003536932368478932,
        "Eccentricity": 0.0,
        "Inclination(deg)": 45.0,
        "Latitude(deg)": 41.469545536063926,
        "Longitude(deg)": -153.6933817324586,
        "Mean Anomaly(deg)": 69.03586727474405,
        "RAAN(deg)": 244.99666123923143,
        "Satellite Name": "Constellation 1 1082",
        "Satellite Number": 1082,
        "Semi-Major Axis(m)": 7083131.272910544,
        "Time(s)": 59
    },
    {
        "Altitude(m)": 706489.946404883,
        "Argument of Periapsis(deg)": 0.003596880374724337,
        "Eccentricity": 0.0,
        "Inclination(deg)": 45.0,
        "Latitude(deg)": 41.49003989795077,
        "Longitude(deg)": -153.62134783755863,
        "Mean Anomaly(deg)": 69.09656841499394,
        "RAAN(deg)": 244.99660465006588,
        "Satellite Name": "Constellation 1 1082",
        "Satellite Number": 1082,
        "Semi-Major Axis(m)": 7083131.272910544,
        "Time(s)": 60
    },
    {
        "Altitude(m)": 706494.4193814903,
        "Argument of Periapsis(deg)": 0.0036568283809697427,
        "Eccentricity": 0.0,
        "Inclination(deg)": 45.0,
        "Latitude(deg)": 41.51048376757738,
        "Longitude(deg)": -153.54926602736506,
        "Mean Anomaly(deg)": 69.15726955524381,
        "RAAN(deg)": 244.99654806090032,
        "Satellite Name": "Constellation 1 1082",
        "Satellite Number": 1082,
        "Semi-Major Axis(m)": 7083131.272910544,
        "Time(s)": 61
    },
    {
        "Altitude(m)": 706498.8825274102,
        "Argument of Periapsis(deg)": 0.003716776387215149,
        "Eccentricity": 0.0,
        "Inclination(deg)": 45.0,
        "Latitude(deg)": 41.53087707759307,
        "Longitude(deg)": -153.47713635558324,
        "Mean Anomaly(deg)": 69.2179706954937,
        "RAAN(deg)": 244.99649147173469,
        "Satellite Name": "Constellation 1 1082",
        "Satellite Number": 1082,
        "Semi-Major Axis(m)": 7083131.272910544,
        "Time(s)": 62
    },
    {
        "Altitude(m)": 706503.3358159339,
        "Argument of Periapsis(deg)": 0.003776724393460554,
        "Eccentricity": 0.0,
        "Inclination(deg)": 45.0,
        "Latitude(deg)": 41.551219760704065,
        "Longitude(deg)": -153.40495887644985,
        "Mean Anomaly(deg)": 69.2786718357436,
        "RAAN(deg)": 244.99643488256913,
        "Satellite Name": "Constellation 1 1082",
        "Satellite Number": 1082,
        "Semi-Major Axis(m)": 7083131.272910544,
        "Time(s)": 63
    },
    {
        "Altitude(m)": 706507.7792204119,
        "Argument of Periapsis(deg)": 0.003836672399705959,
        "Eccentricity": 0.0,
        "Inclination(deg)": 45.0,
        "Latitude(deg)": 41.57151174967439,
        "Longitude(deg)": -153.33273364473413,
        "Mean Anomaly(deg)": 69.33937297599353,
        "RAAN(deg)": 244.99637829340358,
        "Satellite Name": "Constellation 1 1082",
        "Satellite Number": 1082,
        "Semi-Major Axis(m)": 7083131.272910544,
        "Time(s)": 64
    },
    {
        "Altitude(m)": 706512.2127142734,
        "Argument of Periapsis(deg)": 0.003896620405951365,
        "Eccentricity": 0.0,
        "Inclination(deg)": 45.0,
        "Latitude(deg)": 41.591752977326536,
        "Longitude(deg)": -153.2604607157386,
        "Mean Anomaly(deg)": 69.40007411624342,
        "RAAN(deg)": 244.99632170423803,
        "Satellite Name": "Constellation 1 1082",
        "Satellite Number": 1082,
        "Semi-Major Axis(m)": 7083131.272910544,
        "Time(s)": 65
    },
    {
        "Altitude(m)": 706516.6362709991,
        "Argument of Periapsis(deg)": 0.003956568412196771,
        "Eccentricity": 0.0,
        "Inclination(deg)": 45.0,
        "Latitude(deg)": 41.61194337654245,
        "Longitude(deg)": -153.1881401452996,
        "Mean Anomaly(deg)": 69.4607752564933,
        "RAAN(deg)": 244.99626511507248,
        "Satellite Name": "Constellation 1 1082",
        "Satellite Number": 1082,
        "Semi-Major Axis(m)": 7083131.272910544,
        "Time(s)": 66
    },
    {
        "Altitude(m)": 706521.0498641317,
        "Argument of Periapsis(deg)": 0.004016516418442176,
        "Eccentricity": 0.0,
        "Inclination(deg)": 45.0,
        "Latitude(deg)": 41.63208288026448,
        "Longitude(deg)": -153.11577215788577,
        "Mean Anomaly(deg)": 69.52147639674324,
        "RAAN(deg)": 244.99620852590684,
        "Satellite Name": "Constellation 1 1082",
        "Satellite Number": 1082,
        "Semi-Major Axis(m)": 7083131.272910544,
        "Time(s)": 67
    },
    {
        "Altitude(m)": 706525.4534672858,
        "Argument of Periapsis(deg)": 0.004076464424687581,
        "Eccentricity": 0.0,
        "Inclination(deg)": 45.0,
        "Latitude(deg)": 41.652171421495055,
        "Longitude(deg)": -153.04335647421038,
        "Mean Anomaly(deg)": 69.58217753699313,
        "RAAN(deg)": 244.99615193674128,
        "Satellite Name": "Constellation 1 1082",
        "Satellite Number": 1082,
        "Semi-Major Axis(m)": 7083131.272910544,
        "Time(s)": 68
    },
    {
        "Altitude(m)": 706529.8470541335,
        "Argument of Periapsis(deg)": 0.004136412430932987,
        "Eccentricity": 0.0,
        "Inclination(deg)": 45.0,
        "Latitude(deg)": 41.672208933299395,
        "Longitude(deg)": -152.97089331981425,
        "Mean Anomaly(deg)": 69.642878677243,
        "RAAN(deg)": 244.99609534757573,
        "Satellite Name": "Constellation 1 1082",
        "Satellite Number": 1082,
        "Semi-Major Axis(m)": 7083131.272910544,
        "Time(s)": 69
    },
    {
        "Altitude(m)": 706534.2305984161,
        "Argument of Periapsis(deg)": 0.004196360437178394,
        "Eccentricity": 0.0,
        "Inclination(deg)": 45.0,
        "Latitude(deg)": 41.69219534880487,
        "Longitude(deg)": -152.8983827526786,
        "Mean Anomaly(deg)": 69.70357981749291,
        "RAAN(deg)": 244.99603875841018,
        "Satellite Name": "Constellation 1 1082",
        "Satellite Number": 1082,
        "Semi-Major Axis(m)": 7083131.272910544,
        "Time(s)": 70
    },
    {
        "Altitude(m)": 706538.6040739351,
        "Argument of Periapsis(deg)": 0.004256308443423799,
        "Eccentricity": 0.0,
        "Inclination(deg)": 45.0,
        "Latitude(deg)": 41.71213060120245,
        "Longitude(deg)": -152.8258248313228,
        "Mean Anomaly(deg)": 69.76428095774284,
        "RAAN(deg)": 244.9959821692446,
        "Satellite Name": "Constellation 1 1082",
        "Satellite Number": 1082,
        "Semi-Major Axis(m)": 7083131.272910544,
        "Time(s)": 71
    },
    {
        "Altitude(m)": 706542.967454558,
        "Argument of Periapsis(deg)": 0.004316256449669204,
        "Eccentricity": 0.0,
        "Inclination(deg)": 45.0,
        "Latitude(deg)": 41.732014623747276,
        "Longitude(deg)": -152.75321961480563,
        "Mean Anomaly(deg)": 69.82498209799273,
        "RAAN(deg)": 244.995925580079,
        "Satellite Name": "Constellation 1 1082",
        "Satellite Number": 1082,
        "Semi-Major Axis(m)": 7083131.272910544,
        "Time(s)": 72
    },
    {
        "Altitude(m)": 706547.3207142102,
        "Argument of Periapsis(deg)": 0.00437620445591461,
        "Eccentricity": 0.0,
        "Inclination(deg)": 45.0,
        "Latitude(deg)": 41.75184734975956,
        "Longitude(deg)": -152.6805671627252,
        "Mean Anomaly(deg)": 69.8856832382426,
        "RAAN(deg)": 244.99586899091344,
        "Satellite Name": "Constellation 1 1082",
        "Satellite Number": 1082,
        "Semi-Major Axis(m)": 7083131.272910544,
        "Time(s)": 73
    },
    {
        "Altitude(m)": 706551.6638268952,
        "Argument of Periapsis(deg)": 0.004436152462160016,
        "Eccentricity": 0.0,
        "Inclination(deg)": 45.0,
        "Latitude(deg)": 41.771628712625734,
        "Longitude(deg)": -152.60786770331723,
        "Mean Anomaly(deg)": 69.94638437849255,
        "RAAN(deg)": 244.99581240174788,
        "Satellite Name": "Constellation 1 1082",
        "Satellite Number": 1082,
        "Semi-Major Axis(m)": 7083131.272910544,
        "Time(s)": 74
    },
    {
        "Altitude(m)": 706555.9967666715,
        "Argument of Periapsis(deg)": 0.0044961004684054215,
        "Eccentricity": 0.0,
        "Inclination(deg)": 45.0,
        "Latitude(deg)": 41.79135864579804,
        "Longitude(deg)": -152.53512096106832,
        "Mean Anomaly(deg)": 70.00708551874243,
        "RAAN(deg)": 244.99575581258233,
        "Satellite Name": "Constellation 1 1082",
        "Satellite Number": 1082,
        "Semi-Major Axis(m)": 7083131.272910544,
        "Time(s)": 75
    }
]